#aV2012  6  6  0  0  0.00000000     288 DD+AD WGS84 FIT  NGA
## 1691 259200.00000000   300.00000000 56084 0.0000000000000
+   31     1  2  3  4  5  6  7  8  9 10 11 12 13 14 15 16 17
+         18 19 20 21 22 23 25 26 27 28 29 30 31 32  0  0  0
+          0  0  0  0  0  0  0  0  0  0  0  0  0  0  0  0  0
+          0  0  0  0  0  0  0  0  0  0  0  0  0  0  0  0  0
+          0  0  0  0  0  0  0  0  0  0  0  0  0  0  0  0  0
++         2  2  2  2  2  2  2  2  2  2  2  2  2  2  2  2  2
++         2  2  2  2  2  2  2  2  2  2  2  2  2  2  2  0  0
++         0  0  0  0  0  0  0  0  0  0  0  0  0  0  0  0  0
++         0  0  0  0  0  0  0  0  0  0  0  0  0  0  0  0  0
++         0  0  0  0  0  0  0  0  0  0  0  0  0  0  0  0  0
%c cc cc ccc ccc cccc cccc cccc cccc ccccc ccccc ccccc ccccc
%c cc cc ccc ccc cccc cccc cccc cccc ccccc ccccc ccccc ccccc
%f  0.0000000  0.000000000  0.00000000000  0.000000000000000
%f  0.0000000  0.000000000  0.00000000000  0.000000000000000
%i    0    0    0    0      0      0      0      0         0
%i    0    0    0    0      0      0      0      0         0
/*      NGA, ST. LOUIS,MO.                                  
/*   EPHEMERIS COMPUTED FROM  1 DAYS OF DATA
/*   EPOCHA SMOOTHER  
/* CCCCCCCCCCCCCCCCCCCCCCCCCCCCCCCCCCCCCCCCCCCCCCCCCCCCCCCCC
*  2012  6  6 12  0  0.00000000                                                 
P  1 -13575.728965  16655.465856  15582.184686    260.112112                    
V  1    980.799672 -19895.013801  22144.095581      0.017616                    
P  2  14077.790669   8848.401018 -20667.811539    392.752720                    
V  2  -4292.819184  26193.803833   7732.763468      0.012835                    
P  3 -24163.338937  -9140.488727   6282.010226     58.782669                    
V  3  -5547.832954  -7358.885557 -29540.025194      0.051214                    
P  4   8424.152238  19899.081032 -15480.971373    206.079886                    
V  4  -5547.579651  18783.304837  21785.492737      0.114967                    
P  5  23491.494842    463.508700 -12525.552810   -322.691050                    
V  5 -13884.156498   8024.880742 -25657.346307     -0.037205                    
P  6 -23006.290332 -13136.374368   3654.742266     20.624387                    
V  6  -1773.125104  -5202.950534 -30598.441108     -0.031925                    
P  7  -7174.386603  25077.796836  -4175.234637     88.078307                    
V  7  -1586.943193  -5707.694834 -31662.924874      0.036159                    
P  8    169.290127  24420.355296   9750.372270      1.381677                    
V  8  -4952.817759  11554.815777 -29607.438008      0.001371                    
P  9  13959.940619 -12929.146179  17990.802212    163.242814                    
V  9  -2148.023603  23861.917533  18213.250850      0.025429                    
P 10   9591.497040  12943.620709 -21415.535395    -40.546989                    
V 10 -24887.665192   9421.401598  -5121.006082     -0.012786                    
P 11 -14430.790071  10591.187044  19161.412834   -268.841931                    
V 11  -4990.212856 -25148.555077  10263.499180     -0.038542                    
P 12  23881.946829 -10897.817003  -3284.103079     73.049862                    
V 12   4718.145494    794.732443  31949.682452      0.020889                    
P 13  -2627.385288  16563.491866 -20713.264147    202.744636                    
V 13 -19139.291072 -17516.077146 -11758.250340     -0.023972                    
P 14 -13232.564093 -21049.820915   9724.006117    204.521769                    
V 14  10113.136114   6759.227342  28785.723209      0.008785                    
P 15  18796.127862  -2548.075176  18665.836273    -91.590617                    
V 15  17850.126160  15660.242076 -15620.434020     -0.001753                    
P 16 -23343.187485  -1226.165286 -12908.020279   -237.324336                    
V 16  14888.310170  -6660.162831 -25978.071773     -0.012125                    
P 17  12329.146561  20948.423838  11160.739845    123.216757                    
V 17 -11847.356988  -7425.028277  27234.556741     -0.028928                    
P 18   7809.058617 -17653.834240  18456.209176    199.242369                    
V 18  22183.786680  -6170.620326 -15968.132546      0.018133                    
P 19 -19679.359964  -1566.900106  17905.738456   -272.572721                    
V 19 -15363.720753 -16749.071580 -17912.666525     -0.036852                    
P 20 -20851.950976  14884.920324  -7032.480638     63.728582                    
V 20  -9488.571548    239.743963  29363.926145      0.002424                    
P 21   3591.453991 -25991.203283    789.754154   -228.483110                    
V 21   4284.674183    240.522753 -31434.138156     -0.024405                    
P 22  -8095.250824 -13994.165464  21266.552909    144.302013                    
V 22  24908.957304  -9625.415277   3047.272526      0.003976                    
P 23 -13153.012204   8577.856970 -21428.359980    198.039330                    
V 23 -20788.214912 -17616.291065   5326.894163     -0.037402                    
P 25  14100.089393 -16727.068544 -15053.295381     34.985265                    
V 25  18408.007141  -5284.199580  23228.859064      0.005624                    
P 26  21655.505710  11795.328871   9710.761620   -381.798265                    
V 26   8234.446403  10335.769865 -28715.299788      0.102354                    
P 27  15154.965614  -6036.487999  21466.389965    395.795479                    
V 27  -2281.794158  25814.205104   9616.973131      0.040067                    
P 28   4512.361700  14370.605719  22428.777216    151.895016                    
V 28 -25758.063787   8394.911866   -415.534034      0.039537                    
P 29   5735.877048 -14683.805432 -21315.425373    320.619234                    
V 29  20769.936480  17579.375321  -6456.075945      0.038693                    
P 30 -16267.449691  -7438.470999 -19995.275009   -221.408852                    
V 30  21450.566133 -12107.690644 -13185.157631     -0.214621                    
P 31  -8008.682631 -18823.205934 -16615.899997    250.098378                    
V 31   5310.851846 -20908.732803  21125.720898      0.040178                    
P 32 -25334.029934   7045.785875    376.054845   -451.565706                    
V 32   -749.999485  -3449.606023  31866.084215     -0.039792                    
EOF
